{"type":"FeatureCollection","metadata":{"routeDirectionId":106,"routeDirectionName":"IS_LAUGAVEGUR","version":"2026.05.20","pointCount":5,"poiCount":5},"features":[{"type":"Feature","properties":{"role":"route","name":"IS_LAUGAVEGUR","nameCN":"朗格迈维卢尔步道"},"geometry":{"type":"LineString","coordinates":[[-19.0618,63.993],[-19.2,63.93],[-19.35,63.86],[-19.42,63.78],[-19.48,63.68]]}},{"type":"Feature","properties":{"role":"poi","id":"hut-landmannalaugar","nameCN":"兰德曼纳劳卡山屋","nameEN":"Landmannalaugar Hut","subCategory":"HUT"},"geometry":{"type":"Point","coordinates":[-19.0615,63.9928]}},{"type":"Feature","properties":{"role":"poi","id":"hut-nyidalur","nameCN":"尼达鲁尔山屋","nameEN":"Nýidalur Hut","subCategory":"HUT"},"geometry":{"type":"Point","coordinates":[-18.1,64.73]}},{"type":"Feature","properties":{"role":"poi","id":"hut-thorsmork","nameCN":"索斯莫克山屋","nameEN":"Þórsmörk Huts","subCategory":"HUT"},"geometry":{"type":"Point","coordinates":[-19.475,63.6795]}},{"type":"Feature","properties":{"role":"poi","id":"froad-landmannalaugar","nameCN":"兰德曼纳劳卡","nameEN":"Landmannalaugar","subCategory":"F_ROAD_NODE"},"geometry":{"type":"Point","coordinates":[-19.0618,63.993]}},{"type":"Feature","properties":{"role":"poi","id":"froad-thorsmork","nameCN":"索斯莫克","nameEN":"Þórsmörk","subCategory":"F_ROAD_NODE"},"geometry":{"type":"Point","coordinates":[-19.48,63.68]}}]}