{"type":"FeatureCollection","metadata":{"routeDirectionId":42,"routeDirectionName":"IS_TREKKING_WILDERNESS","version":"2026.05.20","pointCount":5,"poiCount":3},"features":[{"type":"Feature","properties":{"role":"route","name":"IS_TREKKING_WILDERNESS","nameCN":"荒野徒步探险"},"geometry":{"type":"LineString","coordinates":[[-19.0618,63.993],[-19.0615,63.9928],[-18.1,64.73],[-19.48,63.68],[-19.475,63.6795]]}},{"type":"Feature","properties":{"role":"poi","id":"hut-landmannalaugar","nameCN":"兰德曼纳劳卡山屋","nameEN":"Landmannalaugar Hut","subCategory":"HUT"},"geometry":{"type":"Point","coordinates":[-19.0615,63.9928]}},{"type":"Feature","properties":{"role":"poi","id":"hut-nyidalur","nameCN":"尼达鲁尔山屋","nameEN":"Nýidalur Hut","subCategory":"HUT"},"geometry":{"type":"Point","coordinates":[-18.1,64.73]}},{"type":"Feature","properties":{"role":"poi","id":"hut-thorsmork","nameCN":"索斯莫克山屋","nameEN":"Þórsmörk Huts","subCategory":"HUT"},"geometry":{"type":"Point","coordinates":[-19.475,63.6795]}}]}